[{"OBJECT_NAME":"STARLINK-3552","OBJECT_ID":"2022-017AX","EPOCH":"2026-03-09T22:46:59.222784","MEAN_MOTION":15.08832758,"ECCENTRICITY":0.00011223,"INCLINATION":53.2185,"RA_OF_ASC_NODE":327.9839,"ARG_OF_PERICENTER":78.4437,"MEAN_ANOMALY":281.6681,"EPHEMERIS_TYPE":0,"CLASSIFICATION_TYPE":"U","NORAD_CAT_ID":51813,"ELEMENT_SET_NO":999,"REV_AT_EPOCH":22412,"BSTAR":4.102763e-6,"MEAN_MOTION_DOT":-2.22e-6,"MEAN_MOTION_DDOT":0},{"OBJECT_NAME":"CZ-6A DEB","OBJECT_ID":"2024-140EZ","EPOCH":"2026-03-09T16:13:02.096544","MEAN_MOTION":15.06200416,"ECCENTRICITY":0.00757943,"INCLINATION":89.319,"RA_OF_ASC_NODE":303.8689,"ARG_OF_PERICENTER":93.3463,"MEAN_ANOMALY":267.6449,"EPHEMERIS_TYPE":0,"CLASSIFICATION_TYPE":"U","NORAD_CAT_ID":60774,"ELEMENT_SET_NO":999,"REV_AT_EPOCH":8499,"BSTAR":0.003121721,"MEAN_MOTION_DOT":0.00049072,"MEAN_MOTION_DDOT":0}]
